NORAD_CAT_ID,OBJECT_NAME,OBJECT_TYPE,EPOCH,MEAN_MOTION,ECCENTRICITY,INCLINATION,RA_OF_ASC_NODE,ARG_OF_PERICENTER,MEAN_ANOMALY,BSTAR,MEAN_MOTION_DOT,MEAN_MOTION_DDOT,TLE_LINE0,TLE_LINE1,TLE_LINE2,SEMIMAJOR_AXIS,PERIOD,APOGEE,PERIGEE,DECAYED
51856.0,STARLINK-3568,PAYLOAD,2024-07-30 02:21:19,15.08827796,0.0001387,53.2173,136.9359,95.39,264.725,0.00010123,1.323e-05,0.0,0 STARLINK-3568,1 51856U 22022E   24212.09813769  .00001323  00000-0  10123-3 0  9996,2 51856  53.2173 136.9359 0001387  95.3900 264.7250 15.08827796134343,6917.918,95.438,540.742,538.823,0.0
51856.0,STARLINK-3568,PAYLOAD,2024-07-30 23:01:18,15.0884537,0.0001589,53.2182,133.0711,104.2057,255.9112,0.00016253,2.3e-05,0.0,0 STARLINK-3568,1 51856U 22022E   24212.95924717  .00002300  00000-0  16253-3 0  9993,2 51856  53.2182 133.0711 0001589 104.2057 255.9112 15.08845370134471,6917.864,95.437,540.828,538.63,0.0
51856.0,STARLINK-3568,PAYLOAD,2024-07-31 02:12:04,15.08851036,0.000135,53.2172,132.4743,91.1325,268.9822,0.00014757,2.062e-05,0.0,0 STARLINK-3568,1 51856U 22022E   24213.09172452  .00002062  00000-0  14757-3 0  9992,2 51856  53.2172 132.4743 0001350  91.1325 268.9822 15.08851036134496,6917.847,95.437,540.646,538.778,0.0
51856.0,STARLINK-3568,PAYLOAD,2024-07-31 11:44:23,15.08853303,0.0001371,53.2174,130.6904,91.2215,268.8934,0.00015194,2.132e-05,0.0,0 STARLINK-3568,1 51856U 22022E   24213.48916076  .00002132  00000-0  15194-3 0  9997,2 51856  53.2174 130.6904 0001371  91.2215 268.8934 15.08853303134558,6917.84,95.437,540.653,538.756,0.0
51856.0,STARLINK-3568,PAYLOAD,2024-07-31 18:05:57,15.08838102,0.0002493,53.217,129.5015,87.5281,272.5997,0.00013032,1.786e-05,0.0,0 STARLINK-3568,1 51856U 22022E   24213.75413458  .00001786  00000-0  13032-3 0  9996,2 51856  53.2170 129.5015 0002493  87.5281 272.5997 15.08838102134596,6917.886,95.438,541.476,538.027,0.0
51856.0,STARLINK-3568,PAYLOAD,2024-07-31 22:52:07,15.08824149,0.0001474,53.2171,128.609,93.6915,266.4246,1.372e-05,-7e-07,0.0,0 STARLINK-3568,1 51856U 22022E   24213.95286583 -.00000070  00000-0  13720-4 0  9996,2 51856  53.2171 128.6090 0001474  93.6915 266.4246 15.08824149134629,6917.929,95.439,540.814,538.774,0.0
51856.0,STARLINK-3568,PAYLOAD,2024-08-01 11:35:10,15.08848661,0.0001182,53.2162,126.2236,91.2771,268.8356,7.951e-05,9.78e-06,0.0,0 STARLINK-3568,1 51856U 22022E   24214.48276556  .00000978  00000-0  79510-4 0  9999,2 51856  53.2162 126.2236 0001182  91.2771 268.8356 15.08848661134707,6917.854,95.437,540.537,538.901,0.0
51856.0,STARLINK-3568,PAYLOAD,2024-08-01 17:56:44,15.08836707,0.0001462,53.2157,125.0388,91.2301,268.8859,-0.00012046,-2.204e-05,0.0,0 STARLINK-3568,1 51856U 22022E   24214.74773356 -.00002204  00000-0 -12046-3 0  9994,2 51856  53.2157 125.0388 0001462  91.2301 268.8859 15.08836707134746,6917.89,95.438,540.767,538.744,0.0
51856.0,STARLINK-3568,PAYLOAD,2024-08-01 22:42:53,15.08838222,0.0001436,53.2158,124.1488,88.3936,271.7221,-7.083e-05,-1.415e-05,0.0,0 STARLINK-3568,1 51856U 22022E   24214.94645315 -.00001415  00000-0 -70830-4 0  9998,2 51856  53.2158 124.1488 0001436  88.3936 271.7221 15.08838222134773,6917.886,95.438,540.744,538.757,0.0
51856.0,STARLINK-3568,PAYLOAD,2024-08-02 11:25:57,15.08853747,0.0001526,53.2167,121.7661,103.1203,256.9959,0.00020794,3.024e-05,0.0,0 STARLINK-3568,1 51856U 22022E   24215.47636455  .00003024  00000-0  20794-3 0  9991,2 51856  53.2167 121.7661 0001526 103.1203 256.9959 15.08853747134853,6917.838,95.437,540.759,538.648,0.0
51856.0,STARLINK-3568,PAYLOAD,2024-08-02 20:58:18,15.0882595,0.0001441,53.2162,119.9847,87.0758,273.04,8.8491e-05,1.12e-05,0.0,0 STARLINK-3568,1 51856U 22022E   24215.87382095  .00001120  00000-0  88491-4 0  9997,2 51856  53.2162 119.9847 0001441  87.0758 273.0400 15.08825950134917,6917.923,95.438,540.785,538.791,0.0
51856.0,STARLINK-3568,PAYLOAD,2024-08-02 22:33:41,15.08830692,0.0001589,53.216,119.6874,85.3606,274.7567,0.00014052,1.949e-05,0.0,0 STARLINK-3568,1 51856U 22022E   24215.94005868  .00001949  00000-0  14052-3 0  9995,2 51856  53.2160 119.6874 0001589  85.3606 274.7567 15.08830692134920,6917.909,95.438,540.873,538.675,0.0
51856.0,STARLINK-3568,PAYLOAD,2024-08-03 00:09:04,15.08834339,0.0001634,53.216,119.3892,92.9257,267.1922,0.00019361,2.794e-05,0.0,0 STARLINK-3568,1 51856U 22022E   24216.00629835  .00002794  00000-0  19361-3 0  9996,2 51856  53.2160 119.3892 0001634  92.9257 267.1922 15.08834339134938,6917.898,95.438,540.893,538.632,0.0
51856.0,STARLINK-3568,PAYLOAD,2024-08-03 22:24:27,15.08838252,0.0001504,53.2171,115.2261,89.9053,270.2112,0.00011518,1.546e-05,0.0,0 STARLINK-3568,1 51856U 22022E   24216.93365640  .00001546  00000-0  11518-3 0  9999,2 51856  53.2171 115.2261 0001504  89.9053 270.2112 15.08838252135071,6917.886,95.438,540.791,538.71,0.0
51856.0,STARLINK-3568,PAYLOAD,2024-08-04 03:10:37,15.08842002,0.0001339,53.2165,114.3311,99.0065,261.1078,0.00011983,1.62e-05,0.0,0 STARLINK-3568,1 51856U 22022E   24217.13237421  .00001620  00000-0  11983-3 0  9996,2 51856  53.2165 114.3311 0001339  99.0065 261.1078 15.08842002135103,6917.874,95.437,540.666,538.813,0.0
51856.0,STARLINK-3568,PAYLOAD,2024-08-04 22:15:14,15.08853184,0.000143,53.2162,110.7633,98.7818,261.3336,0.00043952,6.716e-05,0.0,0 STARLINK-3568,1 51856U 22022E   24217.92725172  .00006716  00000-0  43952-3 0  9990,2 51856  53.2162 110.7633 0001430  98.7818 261.3336 15.08853184135226,6917.84,95.437,540.694,538.716,0.0
51856.0,STARLINK-3568,PAYLOAD,2024-08-04 23:50:37,15.08858715,0.0001431,53.2163,110.4668,85.1659,274.9497,0.00055247,8.52e-05,0.0,0 STARLINK-3568,1 51856U 22022E   24217.99349052  .00008520  00000-0  55247-3 0  9991,2 51856  53.2163 110.4668 0001431  85.1659 274.9497 15.08858715135230,6917.823,95.436,540.678,538.698,0.0
51856.0,STARLINK-3568,PAYLOAD,2024-08-05 20:30:39,15.08804318,0.0001394,53.2157,106.6006,63.5075,296.606,-0.00097333,-0.0001573,0.0,0 STARLINK-3568,1 51856U 22022E   24218.85462228 -.00015730  00000-0 -97333-3 0  9993,2 51856  53.2157 106.6006 0001394  63.5075 296.6060 15.08804318135367,6917.989,95.44,540.819,538.89,0.0
51856.0,STARLINK-3568,PAYLOAD,2024-08-05 22:06:02,15.08832168,0.0001186,53.2159,106.3031,74.6708,285.4415,-5.5204e-05,-1.166e-05,0.0,0 STARLINK-3568,1 51856U 22022E   24218.92085786 -.00001166  00000-0 -55204-4 0  9991,2 51856  53.2159 106.3031 0001186  74.6708 285.4415 15.08832168135374,6917.904,95.438,540.59,538.949,0.0
51856.0,STARLINK-3568,PAYLOAD,2024-08-05 23:41:25,15.08830743,0.0001355,53.2158,106.0057,59.8846,300.228,-3.3758e-05,-8.25e-06,0.0,0 STARLINK-3568,1 51856U 22022E   24218.98709989 -.00000825  00000-0 -33758-4 0  9996,2 51856  53.2158 106.0057 0001355  59.8846 300.2280 15.08830743135388,6917.909,95.438,540.711,538.836,0.0
51856.0,STARLINK-3568,PAYLOAD,2024-08-06 21:56:49,15.08843308,0.0001273,53.2162,101.8464,68.1942,291.9186,0.00077532,0.00012074,0.0,0 STARLINK-3568,1 51856U 22022E   24219.91446662  .00012074  00000-0  77532-3 0  9990,2 51856  53.2162 101.8464 0001273  68.1942 291.9186 15.08843308135525,6917.87,95.437,540.616,538.855,0.0
51856.0,STARLINK-3568,PAYLOAD,2024-08-07 01:07:36,15.08851706,0.0001299,53.2161,101.2518,70.0339,290.0793,0.00092153,0.00014413,0.0,0 STARLINK-3568,1 51856U 22022E   24220.04694505  .00014413  00000-0  92153-3 0  9992,2 51856  53.2161 101.2518 0001299  70.0339 290.0793 15.08851706135545,6917.845,95.437,540.608,538.811,0.0
51856.0,STARLINK-3568,PAYLOAD,2024-08-07 20:12:13,15.08853114,0.0001305,53.2155,97.6801,95.2661,264.848,0.00044231,6.761e-05,0.0,0 STARLINK-3568,1 51856U 22022E   24220.84182091  .00006761  00000-0  44231-3 0  9993,2 51856  53.2155  97.6801 0001305  95.2661 264.8480 15.08853114135666,6917.84,95.437,540.608,538.803,0.0
51856.0,STARLINK-3568,PAYLOAD,2024-08-08 00:58:22,15.08853821,0.0001353,53.2163,96.7925,78.7782,281.3362,0.0004687,7.182e-05,0.0,0 STARLINK-3568,1 51856U 22022E   24221.04054082  .00007182  00000-0  46870-3 0  9993,2 51856  53.2163  96.7925 0001353  78.7782 281.3362 15.08853821135696,6917.838,95.437,540.639,538.767,0.0
51856.0,STARLINK-3568,PAYLOAD,2024-08-08 21:38:23,15.08847821,0.0001958,53.2165,92.9205,129.6244,230.4922,0.00030735,4.608e-05,0.0,0 STARLINK-3568,1 51856U 22022E   24221.90165777  .00004608  00000-0  30735-3 0  9995,2 51856  53.2165  92.9205 0001958 129.6244 230.4922 15.08847821135822,6917.856,95.437,541.076,538.367,0.0
51856.0,STARLINK-3568,PAYLOAD,2024-08-09 08:46:04,15.08864739,0.0001347,53.2166,90.8325,106.4695,253.6445,0.00072298,0.00011245,0.0,0 STARLINK-3568,1 51856U 22022E   24222.36533155  .00011245  00000-0  72298-3 0  9990,2 51856  53.2166  90.8325 0001347 106.4695 253.6445 15.08864739135899,6917.805,95.436,540.602,538.738,0.0
51856.0,STARLINK-3568,PAYLOAD,2024-08-09 19:53:47,15.08833017,0.000148,53.2164,88.7633,89.6679,270.4483,-8.903e-05,-1.704e-05,0.0,0 STARLINK-3568,1 51856U 22022E   24222.82902000 -.00001704  00000-0 -89030-4 0  9994,2 51856  53.2164  88.7633 0001480  89.6679 270.4483 15.08833017135969,6917.902,95.438,540.791,538.743,0.0
51856.0,STARLINK-3568,PAYLOAD,2024-08-09 21:29:10,15.08833653,0.0001457,53.2156,88.4658,84.6748,275.441,-7.3364e-05,-1.455e-05,0.0,0 STARLINK-3568,1 51856U 22022E   24222.89526021 -.00001455  00000-0 -73364-4 0  9992,2 51856  53.2156  88.4658 0001457  84.6748 275.4410 15.08833653135972,6917.9,95.438,540.773,538.757,0.0
51856.0,STARLINK-3568,PAYLOAD,2024-08-10 00:39:56,15.08845483,0.0001386,53.2163,87.8639,118.4557,241.6575,0.00027194,4.043e-05,0.0,0 STARLINK-3568,1 51856U 22022E   24223.02773699  .00004043  00000-0  27194-3 0  9996,2 51856  53.2163  87.8639 0001386 118.4557 241.6575 15.08845483135990,6917.864,95.437,540.687,538.77,0.0
51856.0,STARLINK-3568,PAYLOAD,2024-08-10 14:58:24,15.08840353,0.0001356,53.2168,85.188,103.0682,257.0462,2.0277e-05,3.5e-07,0.0,0 STARLINK-3568,1 51856U 22022E   24223.62389971  .00000035  00000-0  20277-4 0  9991,2 51856  53.2168  85.1880 0001356 103.0682 257.0462 15.08840353136088,6917.879,95.438,540.682,538.806,0.0
